{"type": "FeatureCollection", "features": [ {"type": "Feature", "properties": {"norad_id": 32289, "name": "YAOGAN-3", "group": "resource", "lat": 57.34153989430478, "lon": 2.4407059323515807, "alt_km": 592.0052592012444, "timestamp": "2025-12-14T05:42:18.114043+00:00", "meta": {"OBJECT_NAME": "YAOGAN-3", "OBJECT_ID": "2007-055A", "EPOCH": "2025-12-13T16:32:59.355168", "MEAN_MOTION": 14.89866614, "ECCENTRICITY": 0.00012616, "INCLINATION": 97.8368, "RA_OF_ASC_NODE": 14.306, "ARG_OF_PERICENTER": 78.5211, "MEAN_ANOMALY": 281.6149, "EPHEMERIS_TYPE": 0, "CLASSIFICATION_TYPE": "U", "NORAD_CAT_ID": 32289, "ELEMENT_SET_NO": 999, "REV_AT_EPOCH": 97823, "BSTAR": 0.00049922217, "MEAN_MOTION_DOT": 4.744e-05, "MEAN_MOTION_DDOT": 0}, "tle": {"line1": "1 32289U 07055A   25347.68957587  .00004744  00000+0  49922-3 0  9994", "line2": "2 32289  97.8368  14.3060 0001261  78.5211 281.6149 14.89866614978238"}}, "geometry": {"type": "Point", "coordinates": [2.4407059323515807, 57.34153989430478]}}, {"type": "Feature", "properties": {"norad_id": 32376, "name": "COSMO-SKYMED 2", "group": "resource", "lat": -63.06873350952809, "lon": -174.63822744268202, "alt_km": 630.5606598906516, "timestamp": "2025-12-14T05:42:18.114054+00:00", "meta": {"OBJECT_NAME": "COSMO-SKYMED 2", "OBJECT_ID": "2007-059A", "EPOCH": "2025-12-13T15:24:43.191648", "MEAN_MOTION": 14.82167859, "ECCENTRICITY": 0.00014984, "INCLINATION": 97.8811, "RA_OF_ASC_NODE": 168.9524, "ARG_OF_PERICENTER": 84.1298, "MEAN_ANOMALY": 276.0086, "EPHEMERIS_TYPE": 0, "CLASSIFICATION_TYPE": "U", "NORAD_CAT_ID": 32376, "ELEMENT_SET_NO": 999, "REV_AT_EPOCH": 97451, "BSTAR": 0.00011139453, "MEAN_MOTION_DOT": 8.35e-06, "MEAN_MOTION_DDOT": 0}, "tle": {"line1": "1 32376U 07059A   25347.64216657  .00000835  00000+0  11139-3 0  9993", "line2": "2 32376  97.8811 168.9524 0001498  84.1298 276.0086 14.82167859974512"}}, "geometry": {"type": "Point", "coordinates": [-174.63822744268202, -63.06873350952809]}}, {"type": "Feature", "properties": {"norad_id": 32382, "name": "RADARSAT-2", "group": "resource", "lat": -35.780445010798765, "lon": -0.9470732613161007, "alt_km": 798.4500650685159, "timestamp": "2025-12-14T05:42:18.114064+00:00", "meta": {"OBJECT_NAME": "RADARSAT-2", "OBJECT_ID": "2007-061A", "EPOCH": "2025-12-13T14:45:37.825632", "MEAN_MOTION": 14.29982385, "ECCENTRICITY": 0.00011214, "INCLINATION": 98.5803, "RA_OF_ASC_NODE": 352.1924, "ARG_OF_PERICENTER": 85.6821, "MEAN_ANOMALY": 274.449, "EPHEMERIS_TYPE": 0, "CLASSIFICATION_TYPE": "U", "NORAD_CAT_ID": 32382, "ELEMENT_SET_NO": 999, "REV_AT_EPOCH": 93943, "BSTAR": 9.7682157e-05, "MEAN_MOTION_DOT": 2.08e-06, "MEAN_MOTION_DDOT": 0}, "tle": {"line1": "1 32382U 07061A   25347.61502113  .00000208  00000+0  97682-4 0  9997", "line2": "2 32382  98.5803 352.1924 0001121  85.6821 274.4490 14.29982385939433"}}, "geometry": {"type": "Point", "coordinates": [-0.9470732613161007, -35.780445010798765]}}, {"type": "Feature", "properties": {"norad_id": 32783, "name": "CARTOSAT-2A", "group": "resource", "lat": 57.39858120763078, "lon": 25.649355238791472, "alt_km": 622.8201070469022, "timestamp": "2025-12-14T05:42:18.114075+00:00", "meta": {"OBJECT_NAME": "CARTOSAT-2A", "OBJECT_ID": "2008-021A", "EPOCH": "2025-12-13T16:27:10.617120", "MEAN_MOTION": 14.78939786, "ECCENTRICITY": 0.00117981, "INCLINATION": 97.7931, "RA_OF_ASC_NODE": 37.4792, "ARG_OF_PERICENTER": 1.7064, "MEAN_ANOMALY": 358.4186, "EPHEMERIS_TYPE": 0, "CLASSIFICATION_TYPE": "U", "NORAD_CAT_ID": 32783, "ELEMENT_SET_NO": 999, "REV_AT_EPOCH": 95138, "BSTAR": 0.00016996148, "MEAN_MOTION_DOT": 1.205e-05, "MEAN_MOTION_DDOT": 0}, "tle": {"line1": "1 32783U 08021A   25347.68553955  .00001205  00000+0  16996-3 0  9992", "line2": "2 32783  97.7931  37.4792 0011798   1.7064 358.4186 14.78939786951380"}}, "geometry": {"type": "Point", "coordinates": [25.649355238791472, 57.39858120763078]}}, {"type": "Feature", "properties": {"norad_id": 33320, "name": "HUANJING 1A (HJ-1A)", "group": "resource", "lat": -52.08864178962299, "lon": -13.58275176179896, "alt_km": 623.664486021079, "timestamp": "2025-12-14T05:42:18.114085+00:00", "meta": {"OBJECT_NAME": "HUANJING 1A (HJ-1A)", "OBJECT_ID": "2008-041A", "EPOCH": "2025-12-13T15:22:18.642720", "MEAN_MOTION": 14.8339626, "ECCENTRICITY": 0.00200551, "INCLINATION": 97.6542, "RA_OF_ASC_NODE": 335.9013, "ARG_OF_PERICENTER": 31.4618, "MEAN_ANOMALY": 328.7792, "EPHEMERIS_TYPE": 0, "CLASSIFICATION_TYPE": "U", "NORAD_CAT_ID": 33320, "ELEMENT_SET_NO": 999, "REV_AT_EPOCH": 93089, "BSTAR": 0.00014609116, "MEAN_MOTION_DOT": 1.151e-05, "MEAN_MOTION_DDOT": 0}, "tle": {"line1": "1 33320U 08041A   25347.64049355  .00001151  00000+0  14609-3 0  9991", "line2": "2 33320  97.6542 335.9013 0020055  31.4618 328.7792 14.83396260930894"}}, "geometry": {"type": "Point", "coordinates": [-13.58275176179896, -52.08864178962299]}}, {"type": "Feature", "properties": {"norad_id": 33321, "name": "HUANJING 1B (HJ-1B)", "group": "resource", "lat": 13.758642540909754, "lon": 162.05034356524217, "alt_km": 623.7563598016568, "timestamp": "2025-12-14T05:42:18.114096+00:00", "meta": {"OBJECT_NAME": "HUANJING 1B (HJ-1B)", "OBJECT_ID": "2008-041B", "EPOCH": "2025-12-13T16:00:23.082912", "MEAN_MOTION": 14.8282418, "ECCENTRICITY": 0.00381694, "INCLINATION": 97.6402, "RA_OF_ASC_NODE": 339.6213, "ARG_OF_PERICENTER": 72.7957, "MEAN_ANOMALY": 287.743, "EPHEMERIS_TYPE": 0, "CLASSIFICATION_TYPE": "U", "NORAD_CAT_ID": 33321, "ELEMENT_SET_NO": 999, "REV_AT_EPOCH": 93091, "BSTAR": 0.0002217956, "MEAN_MOTION_DOT": 1.766e-05, "MEAN_MOTION_DDOT": 0}, "tle": {"line1": "1 33321U 08041B   25347.66693383  .00001766  00000+0  22180-3 0  9995", "line2": "2 33321  97.6402 339.6213 0038169  72.7957 287.7430 14.82824180930914"}}, "geometry": {"type": "Point", "coordinates": [162.05034356524217, 13.758642540909754]}}, {"type": "Feature", "properties": {"norad_id": 33331, "name": "GEOEYE 1", "group": "resource", "lat": 53.99779552512862, "lon": 48.16026956226771, "alt_km": 674.1388941768928, "timestamp": "2025-12-14T05:42:18.114107+00:00", "meta": {"OBJECT_NAME": "GEOEYE 1", "OBJECT_ID": "2008-042A", "EPOCH": "2025-12-13T16:20:25.293120", "MEAN_MOTION": 14.64814494, "ECCENTRICITY": 0.00027227, "INCLINATION": 98.1252, "RA_OF_ASC_NODE": 58.9498, "ARG_OF_PERICENTER": 271.8673, "MEAN_ANOMALY": 88.2218, "EPHEMERIS_TYPE": 0, "CLASSIFICATION_TYPE": "U", "NORAD_CAT_ID": 33331, "ELEMENT_SET_NO": 999, "REV_AT_EPOCH": 92299, "BSTAR": 0.00017623615, "MEAN_MOTION_DOT": 8.93e-06, "MEAN_MOTION_DDOT": 0}, "tle": {"line1": "1 33331U 08042A   25347.68084830  .00000893  00000+0  17624-3 0  9997", "line2": "2 33331  98.1252  58.9498 0002722 271.8673  88.2218 14.64814494922997"}}, "geometry": {"type": "Point", "coordinates": [48.16026956226771, 53.99779552512862]}}, {"type": "Feature", "properties": {"norad_id": 33396, "name": "THEOS", "group": "resource", "lat": 30.3824852794838, "lon": 41.20063478812889, "alt_km": 823.0039814241263, "timestamp": "2025-12-14T05:42:18.114118+00:00", "meta": {"OBJECT_NAME": "THEOS", "OBJECT_ID": "2008-049A", "EPOCH": "2025-12-13T16:01:57.982944", "MEAN_MOTION": 14.20096163, "ECCENTRICITY": 0.00011806, "INCLINATION": 98.5865, "RA_OF_ASC_NODE": 45.7299, "ARG_OF_PERICENTER": 96.1394, "MEAN_ANOMALY": 263.9918, "EPHEMERIS_TYPE": 0, "CLASSIFICATION_TYPE": "U", "NORAD_CAT_ID": 33396, "ELEMENT_SET_NO": 999, "REV_AT_EPOCH": 89163, "BSTAR": 2.2289911e-05, "MEAN_MOTION_DOT": 5e-08, "MEAN_MOTION_DDOT": 0}, "tle": {"line1": "1 33396U 08049A   25347.66803221  .00000005  00000+0  22290-4 0  9997", "line2": "2 33396  98.5865  45.7299 0001180  96.1394 263.9918 14.20096163891632"}}, "geometry": {"type": "Point", "coordinates": [41.20063478812889, 30.3824852794838]}}, {"type": "Feature", "properties": {"norad_id": 33412, "name": "COSMO-SKYMED 3", "group": "resource", "lat": -37.15073598519371, "lon": 12.655648073357213, "alt_km": 549.3868530243699, "timestamp": "2025-12-14T05:42:18.114129+00:00", "meta": {"OBJECT_NAME": "COSMO-SKYMED 3", "OBJECT_ID": "2008-054A", "EPOCH": "2025-12-13T15:58:49.536768", "MEAN_MOTION": 15.05370649, "ECCENTRICITY": 0.0016155, "INCLINATION": 97.8474, "RA_OF_ASC_NODE": 198.0727, "ARG_OF_PERICENTER": 170.5532, "MEAN_ANOMALY": 189.6001, "EPHEMERIS_TYPE": 0, "CLASSIFICATION_TYPE": "U", "NORAD_CAT_ID": 33412, "ELEMENT_SET_NO": 999, "REV_AT_EPOCH": 92901, "BSTAR": 0.00043181449, "MEAN_MOTION_DOT": 6.142e-05, "MEAN_MOTION_DDOT": 0}, "tle": {"line1": "1 33412U 08054A   25347.66585112  .00006142  00000+0  43181-3 0  9997", "line2": "2 33412  97.8474 198.0727 0016155 170.5532 189.6001 15.05370649929015"}}, "geometry": {"type": "Point", "coordinates": [12.655648073357213, -37.15073598519371]}}, {"type": "Feature", "properties": {"norad_id": 33446, "name": "YAOGAN-4", "group": "resource", "lat": 74.46812075361328, "lon": -111.72857726986855, "alt_km": 618.2326160221728, "timestamp": "2025-12-14T05:42:18.114139+00:00", "meta": {"OBJECT_NAME": "YAOGAN-4", "OBJECT_ID": "2008-061A", "EPOCH": "2025-12-13T16:24:13.135968", "MEAN_MOTION": 14.82686837, "ECCENTRICITY": 0.00135092, "INCLINATION": 97.918, "RA_OF_ASC_NODE": 277.7736, "ARG_OF_PERICENTER": 320.0535, "MEAN_ANOMALY": 39.9683, "EPHEMERIS_TYPE": 0, "CLASSIFICATION_TYPE": "U", "NORAD_CAT_ID": 33446, "ELEMENT_SET_NO": 999, "REV_AT_EPOCH": 91817, "BSTAR": 0.00027788174, "MEAN_MOTION_DOT": 2.191e-05, "MEAN_MOTION_DDOT": 0}, "tle": {"line1": "1 33446U 08061A   25347.68348537  .00002191  00000+0  27788-3 0  9997", "line2": "2 33446  97.9180 277.7736 0013509 320.0535  39.9683 14.82686837918178"}}, "geometry": {"type": "Point", "coordinates": [-111.72857726986855, 74.46812075361328]}}]}